NORAD_CAT_ID,OBJECT_NAME,OBJECT_TYPE,EPOCH,MEAN_MOTION,ECCENTRICITY,INCLINATION,RA_OF_ASC_NODE,ARG_OF_PERICENTER,MEAN_ANOMALY,BSTAR,MEAN_MOTION_DOT,MEAN_MOTION_DDOT,TLE_LINE0,TLE_LINE1,TLE_LINE2,SEMIMAJOR_AXIS,PERIOD,APOGEE,PERIGEE,DECAYED
55915.0,STARLINK-5859,PAYLOAD,2024-01-02 13:26:57,14.98331203,0.0003108,69.9996,154.3541,267.7686,92.3117,2.1027e-05,1.58e-06,0.0,0 STARLINK-5859,1 55915U 23037B   24002.56039311  .00000158  00000-0  21027-4 0  9996,2 55915  69.9996 154.3541 0003108 267.7686  92.3117 14.98331203 44771,6950.189,96.107,574.214,569.894,0.0
55915.0,STARLINK-5859,PAYLOAD,2024-01-02 18:15:22,14.98332514,0.0003087,69.9996,153.8491,267.0418,93.0388,3.6055e-05,3.37e-06,0.0,0 STARLINK-5859,1 55915U 23037B   24002.76067160  .00000337  00000-0  36055-4 0  9997,2 55915  69.9996 153.8491 0003087 267.0418  93.0388 14.98332514 44809,6950.185,96.107,574.196,569.905,0.0
55915.0,STARLINK-5859,PAYLOAD,2024-01-03 11:52:51,14.9832697,0.0003051,69.9998,151.998,266.0215,94.0596,-1.2115e-05,-2.38e-06,0.0,0 STARLINK-5859,1 55915U 23037B   24003.49503638 -.00000238  00000-0 -12115-4 0  9996,2 55915  69.9998 151.9980 0003051 266.0215  94.0596 14.98326970 44562,6950.202,96.107,574.188,569.947,0.0
55915.0,STARLINK-5859,PAYLOAD,2024-01-03 13:28:59,14.98327079,0.000305,69.9998,151.8297,266.0921,93.989,-1.0296e-05,-2.16e-06,0.0,0 STARLINK-5859,1 55915U 23037B   24003.56179635 -.00000216  00000-0 -10296-4 0  9994,2 55915  69.9998 151.8297 0003050 266.0921  93.9890 14.98327079 44921,6950.202,96.107,574.187,569.947,0.0
55915.0,STARLINK-5859,PAYLOAD,2024-01-03 19:53:31,14.9832846,0.0003034,69.9998,151.1564,266.6102,93.471,6.9983e-06,-1e-07,0.0,0 STARLINK-5859,1 55915U 23037B   24003.82883525 -.00000010  00000-0  69983-5 0  9992,2 55915  69.9998 151.1564 0003034 266.6102  93.4710 14.98328460 44965,6950.198,96.107,574.171,569.954,0.0
55915.0,STARLINK-5859,PAYLOAD,2024-01-04 11:54:51,14.98331037,0.0002945,69.9999,149.4724,268.5842,91.4979,-9.0939e-07,-1.04e-06,0.0,0 STARLINK-5859,1 55915U 23037B   24004.49643356 -.00000104  00000-0 -90939-6 0  9993,2 55915  69.9999 149.4724 0002945 268.5842  91.4979 14.98331037 44718,6950.19,96.107,574.102,570.008,0.0
55915.0,STARLINK-5859,PAYLOAD,2024-01-04 13:30:59,14.98331044,0.0002946,69.9999,149.3041,268.6269,91.4553,-4.8902e-07,-9.9e-07,0.0,0 STARLINK-5859,1 55915U 23037B   24004.56319348 -.00000099  00000-0 -48902-6 0  9998,2 55915  69.9999 149.3041 0002946 268.6269  91.4553 14.98331044 45070,6950.19,96.107,574.102,570.007,0.0
55915.0,STARLINK-5859,PAYLOAD,2024-01-04 19:55:31,14.98332879,0.0002939,70.0,148.6305,269.0472,91.0351,2.2293e-05,1.73e-06,0.0,0 STARLINK-5859,1 55915U 23037B   24004.83023143  .00000173  00000-0  22293-4 0  9997,2 55915  70.0000 148.6305 0002939 269.0472  91.0351 14.98332879 45118,6950.184,96.107,574.092,570.006,0.0
55915.0,STARLINK-5859,PAYLOAD,2024-01-05 11:56:52,14.98327056,0.0002935,70.0001,146.9473,269.9807,90.1015,1.2099e-06,-7.9e-07,0.0,0 STARLINK-5859,1 55915U 23037B   24005.49783546 -.00000079  00000-0  12099-5 0  9990,2 55915  70.0001 146.9473 0002935 269.9807  90.1015 14.98327056 44862,6950.202,96.107,574.107,570.027,0.0
55915.0,STARLINK-5859,PAYLOAD,2024-01-05 13:33:01,14.98326889,0.0002939,70.0001,146.779,269.8419,90.2404,-9.7282e-07,-1.05e-06,0.0,0 STARLINK-5859,1 55915U 23037B   24005.56459571 -.00000105  00000-0 -97282-6 0  9995,2 55915  70.0001 146.7790 0002939 269.8419  90.2404 14.98326889 45221,6950.203,96.107,574.11,570.025,0.0
55915.0,STARLINK-5859,PAYLOAD,2024-01-05 18:21:25,14.98326925,0.000291,70.0002,146.274,269.5643,90.5182,5.7349e-07,-8.6e-07,0.0,0 STARLINK-5859,1 55915U 23037B   24005.76487589 -.00000086  00000-0  57349-6 0  9994,2 55915  70.0002 146.2740 0002910 269.5643  90.5182 14.98326925 45257,6950.202,96.107,574.09,570.045,0.0
55915.0,STARLINK-5859,PAYLOAD,2024-01-06 11:58:53,14.98329162,0.0002907,70.0002,144.4227,266.2548,93.8278,-1.6097e-05,-2.85e-06,0.0,0 STARLINK-5859,1 55915U 23037B   24006.49923498 -.00000285  00000-0 -16097-4 0  9994,2 55915  70.0002 144.4227 0002907 266.2548  93.8278 14.98329162 45013,6950.195,96.107,574.081,570.04,0.0
55915.0,STARLINK-5859,PAYLOAD,2024-01-06 18:23:26,14.98329349,0.0002903,70.0002,143.7495,265.9037,94.179,-1.1684e-05,-2.32e-06,0.0,0 STARLINK-5859,1 55915U 23037B   24006.76627481 -.00000232  00000-0 -11684-4 0  9996,2 55915  70.0002 143.7495 0002903 265.9037  94.1790 14.98329349 45400,6950.195,96.107,574.078,570.042,0.0
55915.0,STARLINK-5859,PAYLOAD,2024-01-07 12:00:54,14.98327928,0.0003,70.0002,141.8991,266.1634,93.9182,4.9084e-05,4.93e-06,0.0,0 STARLINK-5859,1 55915U 23037B   24007.50063358  .00000493  00000-0  49084-4 0  9998,2 55915  70.0002 141.8991 0003000 266.1634  93.9182 14.98327928 45161,6950.199,96.107,574.149,569.979,0.0
55915.0,STARLINK-5859,PAYLOAD,2024-01-07 13:37:02,14.9832861,0.0002992,70.0002,141.7303,266.3499,93.7318,3.8602e-05,3.68e-06,0.0,0 STARLINK-5859,1 55915U 23037B   24007.56739355  .00000368  00000-0  38602-4 0  9996,2 55915  70.0002 141.7303 0002992 266.3499  93.7318 14.98328610 45525,6950.197,96.107,574.142,569.983,0.0
55915.0,STARLINK-5859,PAYLOAD,2024-01-07 18:25:26,14.98329248,0.0002809,70.0006,141.2252,269.6811,90.4026,4.141e-05,4.01e-06,0.0,0 STARLINK-5859,1 55915U 23037B   24007.76767353  .00000401  00000-0  41410-4 0  9996,2 55915  70.0006 141.2252 0002809 269.6811  90.4026 14.98329248 45559,6950.195,96.107,574.013,570.108,0.0
55915.0,STARLINK-5859,PAYLOAD,2024-01-08 12:02:57,14.98309003,0.000292,70.0004,139.3745,266.0017,94.0808,-0.00021299,-2.632e-05,0.0,0 STARLINK-5859,1 55915U 23037B   24008.50205178 -.00002632  00000-0 -21299-3 0  9993,2 55915  70.0004 139.3745 0002920 266.0017  94.0808 14.98309003 45314,6950.258,96.108,574.152,570.093,0.0
55915.0,STARLINK-5859,PAYLOAD,2024-01-08 13:39:05,14.98309554,0.0002938,70.0006,139.2059,267.2338,92.8485,-0.00019598,-2.429e-05,0.0,0 STARLINK-5859,1 55915U 23037B   24008.56881185 -.00002429  00000-0 -19598-3 0  9990,2 55915  70.0006 139.2059 0002938 267.2338  92.8485 14.98309554 45678,6950.256,96.108,574.163,570.079,0.0
55915.0,STARLINK-5859,PAYLOAD,2024-01-08 18:27:29,14.98310532,0.0002955,70.0004,138.7013,268.6214,91.4607,-0.0001855,-2.304e-05,0.0,0 STARLINK-5859,1 55915U 23037B   24008.76909307 -.00002304  00000-0 -18550-3 0  9998,2 55915  70.0004 138.7013 0002955 268.6214  91.4607 14.98310532 45700,6950.253,96.108,574.172,570.064,0.0
55915.0,STARLINK-5859,PAYLOAD,2024-01-09 12:04:57,14.98323076,0.0003295,70.0001,136.8482,280.3742,79.7046,-6.8036e-05,-9.05e-06,0.0,0 STARLINK-5859,1 55915U 23037B   24009.50344763 -.00000905  00000-0 -68036-4 0  9990,2 55915  70.0001 136.8482 0003295 280.3742  79.7046 14.98323076 45467,6950.214,96.107,574.369,569.789,0.0
55915.0,STARLINK-5859,PAYLOAD,2024-01-09 13:41:06,14.98321892,0.000292,70.0008,136.6806,277.7591,82.3236,-6.8332e-05,-9.08e-06,0.0,0 STARLINK-5859,1 55915U 23037B   24009.57020869 -.00000908  00000-0 -68332-4 0  9997,2 55915  70.0008 136.6806 0002920 277.7591  82.3236 14.98321892 45823,6950.218,96.108,574.112,570.054,0.0
55915.0,STARLINK-5859,PAYLOAD,2024-01-09 18:29:29,14.98325249,0.0002721,70.0011,136.1758,272.3539,87.7309,-2.3137e-05,-3.69e-06,0.0,0 STARLINK-5859,1 55915U 23037B   24009.77048582 -.00000369  00000-0 -23137-4 0  9996,2 55915  70.0011 136.1758 0002721 272.3539  87.7309 14.98325249 45853,6950.208,96.107,573.964,570.181,0.0
55915.0,STARLINK-5859,PAYLOAD,2024-01-10 10:30:49,14.98340734,0.0003468,69.9996,134.4919,274.11,85.9663,0.00014226,1.605e-05,0.0,0 STARLINK-5859,1 55915U 23037B   24010.43806901  .00001605  00000-0  14226-3 0  9998,2 55915  69.9996 134.4919 0003468 274.1100  85.9663 14.98340734 45607,6950.16,96.106,574.435,569.614,0.0
55915.0,STARLINK-5859,PAYLOAD,2024-01-10 18:31:29,14.9833383,0.0003053,70.0006,133.6488,271.3717,88.7092,8.1897e-05,8.84e-06,0.0,0 STARLINK-5859,1 55915U 23037B   24010.77187438  .00000884  00000-0  81897-4 0  9999,2 55915  70.0006 133.6488 0003053 271.3717  88.7092 14.98333830 45658,6950.181,96.107,574.168,569.924,0.0
55915.0,STARLINK-5859,PAYLOAD,2024-01-11 13:45:06,14.98336733,0.0002922,70.0006,131.6311,268.8908,91.1916,0.00010983,1.218e-05,0.0,0 STARLINK-5859,1 55915U 23037B   24011.57299138  .00001218  00000-0  10983-3 0  9998,2 55915  70.0006 131.6311 0002922 268.8908  91.1916 14.98336733 46129,6950.172,96.107,574.068,570.006,0.0
55915.0,STARLINK-5859,PAYLOAD,2024-01-11 18:33:30,14.98339433,0.0002627,70.001,131.1261,260.8136,99.2726,0.00014413,1.628e-05,0.0,0 STARLINK-5859,1 55915U 23037B   24011.77326737  .00001628  00000-0  14413-3 0  9993,2 55915  70.0010 131.1261 0002627 260.8136  99.2726 14.98339433 45802,6950.164,96.106,573.855,570.203,0.0
55915.0,STARLINK-5859,PAYLOAD,2024-01-12 12:10:59,14.98333037,0.0003413,69.9994,129.274,275.2869,84.79,-0.00020684,-2.56e-05,0.0,0 STARLINK-5859,1 55915U 23037B   24012.50763757 -.00002560  00000-0 -20684-3 0  9997,2 55915  69.9994 129.2740 0003413 275.2869  84.7900 14.98333037 45916,6950.183,96.107,574.421,569.676,0.0
55915.0,STARLINK-5859,PAYLOAD,2024-01-12 13:47:08,14.98329736,0.0002934,70.0008,129.1073,264.8182,95.2642,-0.00020939,-2.59e-05,0.0,0 STARLINK-5859,1 55915U 23037B   24012.57439952 -.00002590  00000-0 -20939-3 0  9997,2 55915  70.0008 129.1073 0002934 264.8182  95.2642 14.98329736 46273,6950.194,96.107,574.098,570.02,0.0
55915.0,STARLINK-5859,PAYLOAD,2024-01-12 18:35:31,14.98343093,0.0003166,70.0005,128.6012,266.3493,93.7304,-4.7185e-05,-6.56e-06,0.0,0 STARLINK-5859,1 55915U 23037B   24012.77466555 -.00000656  00000-0 -47185-4 0  9992,2 55915  70.0005 128.6012 0003166 266.3493  93.7304 14.98343093 45951,6950.152,96.106,574.218,569.817,0.0
55915.0,STARLINK-5859,PAYLOAD,2024-01-13 12:13:00,14.98332232,0.0002939,70.0004,126.7499,264.2083,95.8741,-8.4189e-05,-1.097e-05,0.0,0 STARLINK-5859,1 55915U 23037B   24013.50903330 -.00001097  00000-0 -84189-4 0  9996,2 55915  70.0004 126.7499 0002939 264.2083  95.8741 14.98332232 46061,6950.186,96.107,574.094,570.008,0.0
